{
  "type": "FeatureCollection",
  "features": [
    {
      "type": "Feature",
      "properties": {
        "norad_id": 44334,
        "name": "EUTELSAT 7C",
        "group": "eutelsat",
        "lat": 0.0037580701663125628,
        "lon": -176.78327075627035,
        "alt_km": 35781.776763430775,
        "timestamp": "2025-12-21T05:44:51.247458+00:00",
        "meta_object_name": "EUTELSAT 7C",
        "meta_object_id": "2019-034B",
        "meta_epoch": "2025-12-20T06:24:55.272960",
        "meta_mean_motion": 1.00270763,
        "meta_eccentricity": 0.00030526,
        "meta_inclination": 0.0729,
        "meta_ra_of_asc_node": 179.1336,
        "meta_arg_of_pericenter": 73.4447,
        "meta_mean_anomaly": 299.7414,
        "meta_ephemeris_type": 0,
        "meta_classification_type": "U",
        "meta_norad_cat_id": 44334,
        "meta_element_set_no": 999,
        "meta_rev_at_epoch": 504,
        "meta_bstar": 0,
        "meta_mean_motion_dot": 7.2e-07,
        "meta_mean_motion_ddot": 0,
        "tle_line1": "1 44334U 19034B   25354.26730640  .00000072  00000+0  00000+0 0  9999",
        "tle_line2": "2 44334   0.0729 179.1336 0003052  73.4447 299.7414  1.00270763  5048"
      },
      "geometry": {
        "type": "Point",
        "coordinates": [
          -176.78327075627035,
          0.0037580701663125628
        ]
      }
    },
    {
      "type": "Feature",
      "properties": {
        "norad_id": 44624,
        "name": "EUTELSAT 5 WEST B",
        "group": "eutelsat",
        "lat": -0.01591949172889821,
        "lon": 171.23705299613272,
        "alt_km": 35788.115785988084,
        "timestamp": "2025-12-21T05:44:51.247470+00:00",
        "meta_object_name": "EUTELSAT 5 WEST B",
        "meta_object_id": "2019-067A",
        "meta_epoch": "2025-12-20T21:45:55.480032",
        "meta_mean_motion": 1.00271335,
        "meta_eccentricity": 0.00030008,
        "meta_inclination": 0.0666,
        "meta_ra_of_asc_node": 335.803,
        "meta_arg_of_pericenter": 294.0896,
        "meta_mean_anomaly": 141.3279,
        "meta_ephemeris_type": 0,
        "meta_classification_type": "U",
        "meta_norad_cat_id": 44624,
        "meta_element_set_no": 999,
        "meta_rev_at_epoch": 2264,
        "meta_bstar": 0,
        "meta_mean_motion_dot": -1.9e-07,
        "meta_mean_motion_ddot": 0,
        "tle_line1": "1 44624U 19067A   25354.90689213 -.00000019  00000+0  00000+0 0  9999",
        "tle_line2": "2 44624   0.0666 335.8030 0003000 294.0896 141.3279  1.00271335 22646"
      },
      "geometry": {
        "type": "Point",
        "coordinates": [
          171.23705299613272,
          -0.01591949172889821
        ]
      }
    },
    {
      "type": "Feature",
      "properties": {
        "norad_id": 45027,
        "name": "EUTELSAT KONNECT",
        "group": "eutelsat",
        "lat": 0.06747064377628376,
        "lon": -176.55180526916234,
        "alt_km": 35787.85008547658,
        "timestamp": "2025-12-21T05:44:51.247482+00:00",
        "meta_object_name": "EUTELSAT KONNECT",
        "meta_object_id": "2020-005B",
        "meta_epoch": "2025-12-20T06:25:02.761248",
        "meta_mean_motion": 1.00269751,
        "meta_eccentricity": 0.00013058,
        "meta_inclination": 0.0718,
        "meta_ra_of_asc_node": 94.8547,
        "meta_arg_of_pericenter": 192.1408,
        "meta_mean_anomaly": 265.5721,
        "meta_ephemeris_type": 0,
        "meta_classification_type": "U",
        "meta_norad_cat_id": 45027,
        "meta_element_set_no": 999,
        "meta_rev_at_epoch": 2254,
        "meta_bstar": 0,
        "meta_mean_motion_dot": 7.3e-07,
        "meta_mean_motion_ddot": 0,
        "tle_line1": "1 45027U 20005B   25354.26739307  .00000073  00000+0  00000+0 0  9999",
        "tle_line2": "2 45027   0.0718  94.8547 0001305 192.1408 265.5721  1.00269751 22549"
      },
      "geometry": {
        "type": "Point",
        "coordinates": [
          -176.55180526916234,
          0.06747064377628376
        ]
      }
    },
    {
      "type": "Feature",
      "properties": {
        "norad_id": 49056,
        "name": "EUTELSAT QUANTUM",
        "group": "eutelsat",
        "lat": -0.015231150738993015,
        "lon": -136.0586262887721,
        "alt_km": 35777.90524261064,
        "timestamp": "2025-12-21T05:44:51.247494+00:00",
        "meta_object_name": "EUTELSAT QUANTUM",
        "meta_object_id": "2021-069B",
        "meta_epoch": "2025-12-20T23:02:21.700032",
        "meta_mean_motion": 1.00272241,
        "meta_eccentricity": 0.0003346,
        "meta_inclination": 0.0201,
        "meta_ra_of_asc_node": 37.4513,
        "meta_arg_of_pericenter": 242.1544,
        "meta_mean_anomaly": 203.477,
        "meta_ephemeris_type": 0,
        "meta_classification_type": "U",
        "meta_norad_cat_id": 49056,
        "meta_element_set_no": 999,
        "meta_rev_at_epoch": 1614,
        "meta_bstar": 0,
        "meta_mean_motion_dot": 1.49e-06,
        "meta_mean_motion_ddot": 0,
        "tle_line1": "1 49056U 21069B   25354.95997338  .00000149  00000+0  00000+0 0  9996",
        "tle_line2": "2 49056   0.0201  37.4513 0003346 242.1544 203.4770  1.00272241 16144"
      },
      "geometry": {
        "type": "Point",
        "coordinates": [
          -136.0586262887721,
          -0.015231150738993015
        ]
      }
    },
    {
      "type": "Feature",
      "properties": {
        "norad_id": 53765,
        "name": "EUTELSAT KONNECT VHTS",
        "group": "eutelsat",
        "lat": 0.060419123527543264,
        "lon": 179.02234413397713,
        "alt_km": 35779.27537097875,
        "timestamp": "2025-12-21T05:44:51.247512+00:00",
        "meta_object_name": "EUTELSAT KONNECT VHTS",
        "meta_object_id": "2022-110A",
        "meta_epoch": "2025-12-20T03:48:38.814048",
        "meta_mean_motion": 1.00276689,
        "meta_eccentricity": 0.00023926,
        "meta_inclination": 0.0642,
        "meta_ra_of_asc_node": 98.8087,
        "meta_arg_of_pericenter": 137.8855,
        "meta_mean_anomaly": 272.2232,
        "meta_ephemeris_type": 0,
        "meta_classification_type": "U",
        "meta_norad_cat_id": 53765,
        "meta_element_set_no": 999,
        "meta_rev_at_epoch": 503,
        "meta_bstar": 0,
        "meta_mean_motion_dot": 4.2e-07,
        "meta_mean_motion_ddot": 0,
        "tle_line1": "1 53765U 22110A   25354.15878257  .00000042  00000+0  00000+0 0  9998",
        "tle_line2": "2 53765   0.0642  98.8087 0002392 137.8855 272.2232  1.00276689  5030"
      },
      "geometry": {
        "type": "Point",
        "coordinates": [
          179.02234413397713,
          0.060419123527543264
        ]
      }
    },
    {
      "type": "Feature",
      "properties": {
        "norad_id": 54048,
        "name": "EUTELSAT HOTBIRD 13F",
        "group": "eutelsat",
        "lat": -0.04704081867273537,
        "lon": -170.73936604192048,
        "alt_km": 35795.83323825784,
        "timestamp": "2025-12-21T05:44:51.247524+00:00",
        "meta_object_name": "EUTELSAT HOTBIRD 13F",
        "meta_object_id": "2022-134A",
        "meta_epoch": "2025-12-20T04:43:57.443232",
        "meta_mean_motion": 1.00272198,
        "meta_eccentricity": 0.0002383,
        "meta_inclination": 0.0482,
        "meta_ra_of_asc_node": 295.6006,
        "meta_arg_of_pericenter": 68.8406,
        "meta_mean_anomaly": 168.5765,
        "meta_ephemeris_type": 0,
        "meta_classification_type": "U",
        "meta_norad_cat_id": 54048,
        "meta_element_set_no": 999,
        "meta_rev_at_epoch": 1158,
        "meta_bstar": 0,
        "meta_mean_motion_dot": 1.11e-06,
        "meta_mean_motion_ddot": 0,
        "tle_line1": "1 54048U 22134A   25354.19719263  .00000111  00000+0  00000+0 0  9991",
        "tle_line2": "2 54048   0.0482 295.6006 0002383  68.8406 168.5765  1.00272198 11586"
      },
      "geometry": {
        "type": "Point",
        "coordinates": [
          -170.73936604192048,
          -0.04704081867273537
        ]
      }
    },
    {
      "type": "Feature",
      "properties": {
        "norad_id": 54225,
        "name": "EUTELSAT HOTBIRD 13G",
        "group": "eutelsat",
        "lat": -0.02964231649718762,
        "lon": -170.7324416871004,
        "alt_km": 35778.52804694589,
        "timestamp": "2025-12-21T05:44:51.247536+00:00",
        "meta_object_name": "EUTELSAT HOTBIRD 13G",
        "meta_object_id": "2022-146A",
        "meta_epoch": "2025-12-19T18:27:37.056960",
        "meta_mean_motion": 1.0027241,
        "meta_eccentricity": 0.00017892,
        "meta_inclination": 0.0515,
        "meta_ra_of_asc_node": 225.8744,
        "meta_arg_of_pericenter": 308.1908,
        "meta_mean_anomaly": 204.4423,
        "meta_ephemeris_type": 0,
        "meta_classification_type": "U",
        "meta_norad_cat_id": 54225,
        "meta_element_set_no": 999,
        "meta_rev_at_epoch": 566,
        "meta_bstar": 0,
        "meta_mean_motion_dot": 1.12e-06,
        "meta_mean_motion_ddot": 0,
        "tle_line1": "1 54225U 22146A   25353.76917890  .00000112  00000+0  00000+0 0  9990",
        "tle_line2": "2 54225   0.0515 225.8744 0001789 308.1908 204.4423  1.00272410  5660"
      },
      "geometry": {
        "type": "Point",
        "coordinates": [
          -170.7324416871004,
          -0.02964231649718762
        ]
      }
    }
  ]
}